[{"OBJECT_NAME":"CS2","OBJECT_ID":"2021-088C","EPOCH":"2026-03-09T17:38:11.846112","MEAN_MOTION":15.3325593,"ECCENTRICITY":0.00116375,"INCLINATION":97.3928,"RA_OF_ASC_NODE":134.2907,"ARG_OF_PERICENTER":82.3491,"MEAN_ANOMALY":277.9072,"EPHEMERIS_TYPE":0,"CLASSIFICATION_TYPE":"U","NORAD_CAT_ID":49262,"ELEMENT_SET_NO":999,"REV_AT_EPOCH":24526,"BSTAR":0.0005617759,"MEAN_MOTION_DOT":0.00018033,"MEAN_MOTION_DDOT":0},{"OBJECT_NAME":"STARLINK-36110","OBJECT_ID":"2025-286W","EPOCH":"2026-03-09T05:49:39.300672","MEAN_MOTION":15.30184781,"ECCENTRICITY":0.00011068,"INCLINATION":53.1609,"RA_OF_ASC_NODE":0.856,"ARG_OF_PERICENTER":73.5701,"MEAN_ANOMALY":286.5422,"EPHEMERIS_TYPE":0,"CLASSIFICATION_TYPE":"U","NORAD_CAT_ID":66945,"ELEMENT_SET_NO":999,"REV_AT_EPOCH":1534,"BSTAR":0.00039006813,"MEAN_MOTION_DOT":0.00011206,"MEAN_MOTION_DDOT":0}]
